[{"OBJECT_NAME":"KL-ALPHA B","OBJECT_ID":"2019-077B","EPOCH":"2026-03-09T22:53:20.656320","MEAN_MOTION":13.55991854,"ECCENTRICITY":0.00283835,"INCLINATION":88.9031,"RA_OF_ASC_NODE":231.1581,"ARG_OF_PERICENTER":80.1887,"MEAN_ANOMALY":280.247,"EPHEMERIS_TYPE":0,"CLASSIFICATION_TYPE":"U","NORAD_CAT_ID":44786,"ELEMENT_SET_NO":999,"REV_AT_EPOCH":31173,"BSTAR":0.00014525355,"MEAN_MOTION_DOT":1.14e-6,"MEAN_MOTION_DDOT":0},{"OBJECT_NAME":"SCOUT D-1 R\/B","OBJECT_ID":"1977-106B","EPOCH":"2026-03-09T22:59:22.940160","MEAN_MOTION":13.48444463,"ECCENTRICITY":0.00241696,"INCLINATION":89.6395,"RA_OF_ASC_NODE":75.3857,"ARG_OF_PERICENTER":336.7113,"MEAN_ANOMALY":82.5976,"EPHEMERIS_TYPE":0,"CLASSIFICATION_TYPE":"U","NORAD_CAT_ID":10462,"ELEMENT_SET_NO":999,"REV_AT_EPOCH":80349,"BSTAR":0.00011429922,"MEAN_MOTION_DOT":8.1e-7,"MEAN_MOTION_DDOT":0}]
